MEAN_MOTION;ECCENTRICITY;INCLINATION;RA_OF_ASC_NODE;ARG_OF_PERICENTER;MEAN_ANOMALY;BSTAR;MEAN_MOTION_DOT;MEAN_MOTION_DDOT;TYPE
0.97117475;0.0003636;8.1083;50.3538;163.3067;13.5049;0;-1.08E-6;0;Intelsat
0.97117329;0.0003635;8.1091;50.3508;162.9276;189.192;0;-1.01E-6;0;Intelsat
0.97117107;0.0003615;8.1102;50.3469;162.5235;61.9637;0;-9.2E-7;0;Intelsat
0.9711691;0.00036;8.1117;50.3414;161.9982;21.0323;0;-8.3E-7;0;Intelsat
0.97116788;0.000359;8.1134;50.3352;161.54;32.2469;0;-7.6E-7;0;Intelsat
0.97116794;0.0003573;8.1152;50.3289;161.0062;50.816;0;-7.5E-7;0;Intelsat
0.97116951;0.0003552;8.1167;50.3233;160.5285;22.5123;0;-8.0E-7;0;Intelsat
0.97117282;0.0003531;8.1185;50.3168;160.1126;55.457;0;-9.3E-7;0;Intelsat
0.97117619;0.0003504;8.1203;50.3109;159.6079;58.0964;0;-1.11E-6;0;Intelsat
0.97118019;0.0003473;8.1219;50.3052;159.012;50.774;0;-1.32E-6;0;Intelsat
0.97118396;0.0003443;8.1235;50.2997;158.5294;34.4174;0;-1.52E-6;0;Intelsat
0.97118683;0.0003411;8.1251;50.2942;157.9599;16.6114;0;-1.68E-6;0;Intelsat
0.97118782;0.0003389;8.126;50.2913;157.6446;200.6284;0;-1.75E-6;0;Intelsat
0.97118806;0.0003373;8.1269;50.2881;157.2241;41.4028;0;-1.79E-6;0;Intelsat
0.97118844;0.0003351;8.1278;50.2853;156.8702;217.0473;0;-1.81E-6;0;Intelsat
0.97118776;0.0003339;8.1286;50.2825;156.5429;32.6497;0;-1.8E-6;0;Intelsat
0.9711867;0.0003314;8.1297;50.279;156.0171;255.4629;0;-1.75E-6;0;Intelsat
0.97118525;0.0003304;8.1304;50.2765;155.7398;49.0871;0;-1.7E-6;0;Intelsat
0.9711811;0.0003265;8.1322;50.2705;154.6485;62.9572;0;-1.49E-6;0;Intelsat
0.9711765;0.0003236;8.1339;50.2652;153.6801;42.1659;0;-1.25E-6;0;Intelsat
0.97117159;0.0003205;8.1356;50.2595;152.4544;49.2304;0;-9.7E-7;0;Intelsat
0.97116961;0.0003191;8.1365;50.2568;151.8265;225.1465;0;-8.4E-7;0;Intelsat
0.97116782;0.0003179;8.1373;50.254;151.2866;40.9861;0;-7.2E-7;0;Intelsat
0.9711655;0.000316;8.139;50.2487;150.0908;26.5364;0;-5.4E-7;0;Intelsat
0.97116505;0.0003153;8.14;50.2455;149.2168;233.995;0;-4.8E-7;0;Intelsat
0.97116507;0.0003146;8.1407;50.2432;148.8287;28.6841;0;-4.5E-7;0;Intelsat
0.97116566;0.0003141;8.1417;50.2402;147.9051;225.9005;0;-4.5E-7;0;Intelsat
0.97116651;0.0003136;8.1424;50.2378;147.5036;25.1275;0;-4.7E-7;0;Intelsat
0.97116805;0.0003133;8.1433;50.2349;146.5467;217.863;0;-5.3E-7;0;Intelsat
0.97116992;0.0003129;8.1443;50.2318;146.0016;58.7161;0;-6.1E-7;0;Intelsat
0.97117693;0.0003142;8.1468;50.2237;144.0292;226.5939;0;-9.2E-7;0;Intelsat
0.97117889;0.000314;8.1476;50.2209;143.7497;42.1913;0;-1.03E-6;0;Intelsat
0.97118469;0.0003171;8.1502;50.2122;141.8368;235.0237;0;-1.36E-6;0;Intelsat
0.97118577;0.0003172;8.151;50.2094;141.4884;50.7067;0;-1.43E-6;0;Intelsat
0.97118728;0.0003214;8.1536;50.2005;139.9374;243.1868;0;-1.57E-6;0;Intelsat
0.97118579;0.0003237;8.1552;50.1948;139.1809;234.5538;0;-1.56E-6;0;Intelsat
0.97118458;0.0003241;8.1561;50.192;138.8091;50.2126;0;-1.53E-6;0;Intelsat
0.97118192;0.0003262;8.1577;50.1865;138.1323;32.7528;0;-1.43E-6;0;Intelsat
0.97117983;0.0003279;8.1586;50.1831;137.8086;242.1678;0;-1.34E-6;0;Intelsat
0.97117633;0.0003296;8.1603;50.1776;137.318;233.2173;0;-1.18E-6;0;Intelsat
0.97117457;0.0003303;8.1611;50.175;136.9884;42.1209;0;-1.1E-6;0;Intelsat
0.97117161;0.0003319;8.1627;50.1695;136.4624;37.4799;0;-9.4E-7;0;Intelsat
0.97116949;0.000333;8.1644;50.164;136.0519;33.5848;0;-8.1E-7;0;Intelsat
0.97116815;0.0003342;8.1662;50.1582;135.4882;52.4106;0;-7.2E-7;0;Intelsat
0.97116884;0.000335;8.1679;50.1525;134.9573;63.3958;0;-7.1E-7;0;Intelsat
0.97117015;0.0003356;8.1694;50.1477;134.2835;27.1011;0;-7.6E-7;0;Intelsat
0.97117336;0.0003365;8.1711;50.1419;133.5198;46.0363;0;-8.9E-7;0;Intelsat
0.97117344;0.0003368;8.1712;50.1416;133.3257;71.2705;0;-9.0E-7;0;Intelsat
0.97117753;0.0003375;8.173;50.1359;132.4896;94.7805;0;-1.09E-6;0;Intelsat
0.97118145;0.0003388;8.1746;50.1305;131.6198;84.9993;0;-1.29E-6;0;Intelsat
0.97118145;0.0003388;8.1746;50.1305;131.6198;84.9993;0;-1.29E-6;0;Intelsat
0.9711852;0.0003399;8.1763;50.1253;130.7739;74.4313;0;-1.47E-6;0;Intelsat
0.97118778;0.000341;8.1779;50.1202;129.9227;58.2705;0;-1.62E-6;0;Intelsat
0.97118895;0.000343;8.1794;50.1153;129.0295;28.5779;0;-1.69E-6;0;Intelsat
0.97118884;0.000343;8.1795;50.1149;128.9641;53.6908;0;-1.69E-6;0;Intelsat
0.97118807;0.0003454;8.1813;50.1093;127.9671;70.3154;0;-1.66E-6;0;Intelsat
0.97118536;0.0003484;8.1829;50.1042;126.9793;61.916;0;-1.54E-6;0;Intelsat
0.97118107;0.0003518;8.1847;50.0987;126.0268;78.4359;0;-1.32E-6;0;Intelsat
0.97117895;0.0003538;8.1855;50.0961;125.564;254.2146;0;-1.2E-6;0;Intelsat
0.97117667;0.0003552;8.1862;50.0938;125.231;55.6645;0;-1.08E-6;0;Intelsat
0.97117183;0.0003596;8.1881;50.0882;124.3292;78.503;0;-8.0E-7;0;Intelsat
0.97116827;0.0003639;8.1896;50.0832;123.6029;55.2177;0;-5.9E-7;0;Intelsat
0.97116606;0.0003688;8.1913;50.0776;122.9065;71.4257;0;-4.4E-7;0;Intelsat
0.97116632;0.0003738;8.1929;50.0724;122.3029;60.21;0;-4.1E-7;0;Intelsat
0.97116821;0.0003789;8.1945;50.067;121.7077;51.4064;0;-4.9E-7;0;Intelsat
0.97117172;0.0003843;8.1961;50.0616;121.2808;42.4319;0;-6.6E-7;0;Intelsat
0.97117201;0.0003846;8.1962;50.0612;121.2443;67.4788;0;-6.7E-7;0;Intelsat
0.97117964;0.0003946;8.1991;50.0514;120.7449;330.2532;0;-1.09E-6;0;Intelsat
0.97118086;0.0003957;8.1995;50.0497;120.6555;74.3079;0;-1.16E-6;0;Intelsat
0.97118361;0.0003995;8.2006;50.046;120.5823;318.0862;0;-1.31E-6;0;Intelsat
0.97118479;0.0004008;8.2012;50.0441;120.5122;75.6008;0;-1.38E-6;0;Intelsat
0.97118698;0.0004057;8.2028;50.0384;120.3813;78.1877;0;-1.54E-6;0;Intelsat
0.97118767;0.0004077;8.2036;50.0357;120.4455;256.0578;0;-1.59E-6;0;Intelsat
0.97118792;0.0004098;8.2043;50.0335;120.2937;46.4884;0;-1.61E-6;0;Intelsat
0.97118696;0.0004142;8.206;50.0278;120.2075;62.1956;0;-1.61E-6;0;Intelsat
0.97118597;0.0004157;8.2069;50.0248;120.2441;262.5076;0;-1.57E-6;0;Intelsat
0.97118468;0.0004177;8.2077;50.0224;120.152;65.3793;0;-1.53E-6;0;Intelsat
0.97118126;0.0004212;8.2093;50.017;120.0572;68.5997;0;-1.38E-6;0;Intelsat
0.97117769;0.0004242;8.2109;50.0118;119.9559;59.3038;0;-1.21E-6;0;Intelsat
0.97117416;0.0004267;8.2124;50.0066;119.8411;50.0099;0;-1.03E-6;0;Intelsat
0.97117393;0.0004272;8.2126;50.0062;119.8408;75.0512;0;-1.02E-6;0;Intelsat
0.97117088;0.00043;8.2142;50.0006;119.6515;87.3933;0;-8.5E-7;0;Intelsat
0.97116901;0.0004327;8.2158;49.9954;119.409;81.694;0;-7.3E-7;0;Intelsat
0.97116849;0.0004359;8.2175;49.9898;119.2206;95.4078;0;-6.5E-7;0;Intelsat
0.97116898;0.0004391;8.2191;49.9845;118.9554;87.4943;0;-6.5E-7;0;Intelsat
0.97117128;0.000443;8.2207;49.979;118.6359;102.4777;0;-7.2E-7;0;Intelsat
0.97117398;0.0004463;8.2221;49.9746;118.2804;45.2473;0;-8.3E-7;0;Intelsat
0.97117843;0.0004509;8.2239;49.9687;117.8968;83.8844;0;-1.02E-6;0;Intelsat
0.97118248;0.0004564;8.2256;49.9636;117.5407;77.2378;0;-1.21E-6;0;Intelsat
0.97118618;0.0004615;8.2272;49.9582;117.1747;82.5981;0;-1.4E-6;0;Intelsat
0.97118924;0.0004728;8.2305;49.9475;116.5357;94.994;0;-1.6E-6;0;Intelsat
0.9711885;0.0004773;8.2319;49.943;116.416;40.7405;0;-1.57E-6;0;Intelsat
0.97118519;0.0004839;8.2337;49.9371;116.1576;81.6562;0;-1.44E-6;0;Intelsat
0.97118134;0.0004897;8.2351;49.9322;116.0389;47.3535;0;-1.27E-6;0;Intelsat
0.97117527;0.0004972;8.2371;49.9251;115.9361;142.3363;0;-9.7E-7;0;Intelsat
0.97117177;0.0005031;8.2383;49.9206;116.0363;78.5998;0;-7.9E-7;0;Intelsat
0.97116819;0.0005094;8.2399;49.9151;116.051;73.3575;0;-6.1E-7;0;Intelsat
0.9711664;0.0005135;8.2415;49.9091;116.1266;84.7514;0;-5.2E-7;0;Intelsat
0.9711664;0.0005135;8.2415;49.9091;116.1266;84.7514;0;-5.2E-7;0;Intelsat
0.971167;0.0005186;8.2431;49.9036;116.2818;75.1907;0;-5.3E-7;0;Intelsat
0.97116942;0.0005235;8.2446;49.898;116.483;65.582;0;-6.3E-7;0;Intelsat
0.9711733;0.0005287;8.2463;49.8922;116.6918;80.9985;0;-8.2E-7;0;Intelsat
0.97118214;0.0005386;8.2494;49.881;117.1722;86.7631;0;-1.28E-6;0;Intelsat
0.97118507;0.0005416;8.2509;49.8761;117.3428;52.1522;0;-1.45E-6;0;Intelsat
0.97118534;0.0005435;8.251;49.8757;117.3669;77.1696;0;-1.47E-6;0;Intelsat
0.97118709;0.0005439;8.2525;49.8704;117.5324;67.608;0;-1.59E-6;0;Intelsat
0.97118746;0.000546;8.2539;49.8657;117.6091;18.1816;0;-1.64E-6;0;Intelsat
0.97118748;0.0005483;8.2541;49.8647;117.6906;83.076;0;-1.64E-6;0;Intelsat
0.97118619;0.0005503;8.2556;49.8594;117.731;73.6491;0;-1.6E-6;0;Intelsat
0.97118349;0.0005533;8.2571;49.854;117.8247;64.1389;0;-1.5E-6;0;Intelsat
0.97118014;0.0005545;8.2588;49.8483;117.8222;79.7886;0;-1.33E-6;0;Intelsat
0.97117504;0.0005557;8.261;49.8405;117.8649;220.6189;0;-1.07E-6;0;Intelsat
0.9711728;0.0005582;8.2621;49.8367;117.8059;103.7312;0;-9.4E-7;0;Intelsat
0.97117152;0.0005615;8.2627;49.8347;117.8817;236.2181;0;-8.7E-7;0;Intelsat
0.97116921;0.0005654;8.2643;49.8292;117.8909;226.7824;0;-7.2E-7;0;Intelsat
0.97116845;0.0005684;8.2653;49.8256;117.8499;100.9113;0;-6.5E-7;0;Intelsat
0.97116823;0.000573;8.2672;49.819;117.8099;171.518;0;-5.8E-7;0;Intelsat
0.97116925;0.0005766;8.2684;49.8147;117.767;92.1801;0;-5.9E-7;0;Intelsat
0.97116987;0.0005788;8.269;49.8128;117.7575;223.7452;0;-6.1E-7;0;Intelsat
0.9711727;0.0005842;8.2705;49.8081;117.9625;178.0394;0;-7.0E-7;0;Intelsat
0.97117559;0.0005883;8.2718;49.8034;117.9735;121.2331;0;-8.3E-7;0;Intelsat
0.97118148;0.0005944;8.2738;49.7964;117.8832;220.4424;0;-1.09E-6;0;Intelsat
0.97118509;0.0006005;8.2754;49.7905;117.9595;235.8812;0;-1.32E-6;0;Intelsat
0.97118509;0.0006005;8.2754;49.7905;117.9595;235.8812;0;-1.31E-6;0;Intelsat
0.97118805;0.0006067;8.2769;49.7848;118.0769;226.4769;0;-1.5E-6;0;Intelsat
0.97118922;0.0006101;8.2779;49.7812;118.2332;87.6376;0;-1.58E-6;0;Intelsat
0.9711896;0.0006162;8.2794;49.7756;118.4235;74.3182;0;-1.65E-6;0;Intelsat
0.97118929;0.0006187;8.2801;49.773;118.4328;232.3482;0;-1.66E-6;0;Intelsat
0.97118783;0.0006221;8.281;49.7694;118.6661;89.6995;0;-1.63E-6;0;Intelsat
0.97118483;0.0006274;8.2824;49.7638;118.8924;62.8323;0;-1.53E-6;0;Intelsat
0.97118433;0.000628;8.2826;49.7631;118.9082;104.1727;0;-1.51E-6;0;Intelsat
0.97118015;0.0006317;8.2841;49.7575;119.1198;78.2179;0;-1.33E-6;0;Intelsat
0.9711757;0.0006367;8.2855;49.7521;119.4266;43.5066;0;-1.13E-6;0;Intelsat
